[{"OBJECT_NAME":"UMBRA-07","OBJECT_ID":"2023-174AT","EPOCH":"2026-03-09T17:14:20.565312","MEAN_MOTION":15.07174057,"ECCENTRICITY":0.00041314,"INCLINATION":97.3902,"RA_OF_ASC_NODE":128.3323,"ARG_OF_PERICENTER":75.5473,"MEAN_ANOMALY":284.6213,"EPHEMERIS_TYPE":0,"CLASSIFICATION_TYPE":"U","NORAD_CAT_ID":58297,"ELEMENT_SET_NO":999,"REV_AT_EPOCH":12842,"BSTAR":0.0008461425,"MEAN_MOTION_DOT":0.00012685,"MEAN_MOTION_DDOT":0},{"OBJECT_NAME":"FENGYUN 1C DEB","OBJECT_ID":"1999-025EXB","EPOCH":"2026-02-23T13:42:59.544864","MEAN_MOTION":14.51393564,"ECCENTRICITY":0.0280295,"INCLINATION":99.4251,"RA_OF_ASC_NODE":186.6378,"ARG_OF_PERICENTER":116.5278,"MEAN_ANOMALY":246.4942,"EPHEMERIS_TYPE":0,"CLASSIFICATION_TYPE":"U","NORAD_CAT_ID":40695,"ELEMENT_SET_NO":999,"REV_AT_EPOCH":32922,"BSTAR":0.00034500254,"MEAN_MOTION_DOT":2.228e-5,"MEAN_MOTION_DDOT":0}]
